GLOBALSTAR M001         
1 25162U 98008A   24332.53894632  .00000011  00000+0  82590-3 0  9993
2 25162  52.0012 200.1348 0001557 140.3750 244.1653 12.38202344218739
GLOBALSTAR M004         
1 25163U 98008B   24332.35345174 -.00000030  00000+0  40801-3 0  9997
2 25163  52.0012 309.8916 0002672 198.2707 309.4671 12.63380039236170
GLOBALSTAR M002         
1 25164U 98008C   24332.44651456 -.00000069  00000+0  14749-3 0  9995
2 25164  52.0045  26.0332 0001767 138.8492 221.2462 11.61506067160625
GLOBALSTAR M003         
1 25165U 98008D   24332.39813465  .00000029  00000+0  12669-2 0  9993
2 25165  51.9993   7.3826 0007941 245.4538 127.9365 12.12055905208750
GLOBALSTAR M014         
1 25306U 98023A   24332.34150514 -.00000053  00000+0  45842-3 0  9999
2 25306  51.9855 313.7667 0001190 357.8991 150.3131 11.65475287167630
GLOBALSTAR M006         
1 25307U 98023B   24332.54547189 -.00000078  00000+0 -43711-4 0  9992
2 25307  51.9968 358.1871 0003719 102.2978  67.0930 11.58169830193469
GLOBALSTAR M008         
1 25309U 98023D   24332.54904382 -.00000051  00000+0  35848-3 0  9997
2 25309  51.9984  62.6484 0003237 114.1426 259.1026 12.36056836212911
